STARLINK-1966
1 27567C 21009V   21325.14756788  .00007075  00000-0  47413-3 0  3254
2 27567  53.0548 247.5711 0001942  63.6452 255.8304 15.06384648    18
